NORAD_CAT_ID,OBJECT_NAME,OBJECT_TYPE,EPOCH,MEAN_MOTION,ECCENTRICITY,INCLINATION,RA_OF_ASC_NODE,ARG_OF_PERICENTER,MEAN_ANOMALY,BSTAR,MEAN_MOTION_DOT,MEAN_MOTION_DDOT,TLE_LINE0,TLE_LINE1,TLE_LINE2,SEMIMAJOR_AXIS,PERIOD,APOGEE,PERIGEE,DECAYED
52362.0,STARLINK-3848,PAYLOAD,2024-05-05 20:27:47,15.08849146,0.0001337,53.2166,329.6051,81.2816,278.8327,0.00023994,3.534e-05,0.0,0 STARLINK-3848,1 52362U 22045AH  24126.85263604  .00003534  00000-0  23994-3 0  9995,2 52362  53.2166 329.6051 0001337  81.2816 278.8327 15.08849146114345,6917.852,95.437,540.642,538.793,0.0
52362.0,STARLINK-3848,PAYLOAD,2024-05-06 06:00:06,15.08847963,0.00012,53.2152,327.8172,71.9668,288.1455,0.0003226,4.851e-05,0.0,0 STARLINK-3848,1 52362U 22045AH  24127.25007568  .00004851  00000-0  32260-3 0  9994,2 52362  53.2152 327.8172 0001200  71.9668 288.1455 15.08847963114402,6917.856,95.437,540.551,538.891,0.0
52362.0,STARLINK-3848,PAYLOAD,2024-05-06 20:18:34,15.08849125,0.0001214,53.216,325.1445,84.7733,275.3397,0.00026781,3.978e-05,0.0,0 STARLINK-3848,1 52362U 22045AH  24127.84623505  .00003978  00000-0  26781-3 0  9994,2 52362  53.2160 325.1445 0001214  84.7733 275.3397 15.08849125114499,6917.852,95.437,540.557,538.878,0.0
52362.0,STARLINK-3848,PAYLOAD,2024-05-07 13:47:49,15.08836283,9.76e-05,53.2165,321.8717,60.4402,299.6687,-9.9207e-05,-1.866e-05,0.0,0 STARLINK-3848,1 52362U 22045AH  24128.57487978 -.00001866  00000-0 -99207-4 0  9997,2 52362  53.2165 321.8717 0000976  60.4402 299.6687 15.08836283114602,6917.892,95.438,540.432,539.082,0.0
52362.0,STARLINK-3848,PAYLOAD,2024-05-07 21:44:45,15.08837863,0.0001326,53.2166,320.389,98.7041,261.4101,1.917e-06,-2.57e-06,0.0,0 STARLINK-3848,1 52362U 22045AH  24128.90608117 -.00000257  00000-0  19170-5 0  9998,2 52362  53.2166 320.3890 0001326  98.7041 261.4101 15.08837863114650,6917.887,95.438,540.669,538.835,0.0
52362.0,STARLINK-3848,PAYLOAD,2024-05-08 05:41:41,15.08836797,0.0001179,53.2156,318.9002,95.2965,264.8162,5.7065e-05,6.2e-06,0.0,0 STARLINK-3848,1 52362U 22045AH  24129.23728288  .00000620  00000-0  57065-4 0  9994,2 52362  53.2156 318.9002 0001179  95.2965 264.8162 15.08836797114705,6917.89,95.438,540.571,538.94,0.0
52362.0,STARLINK-3848,PAYLOAD,2024-05-08 20:00:09,15.08841366,0.000129,53.2169,316.2216,89.2961,270.8179,0.00015796,2.227e-05,0.0,0 STARLINK-3848,1 52362U 22045AH  24129.83344428  .00002227  00000-0  15796-3 0  9999,2 52362  53.2169 316.2216 0001290  89.2961 270.8179 15.08841366114792,6917.876,95.437,540.634,538.849,0.0
52362.0,STARLINK-3848,PAYLOAD,2024-05-09 05:32:28,15.0884123,0.0001267,53.2165,314.4368,82.5628,277.5508,0.00024973,3.689e-05,0.0,0 STARLINK-3848,1 52362U 22045AH  24130.23088548  .00003689  00000-0  24973-3 0  9993,2 52362  53.2165 314.4368 0001267  82.5628 277.5508 15.08841230114853,6917.877,95.437,540.618,538.865,0.0
52362.0,STARLINK-3848,PAYLOAD,2024-05-09 19:50:56,15.08852676,0.0001204,53.2164,311.7611,86.2455,273.8675,0.00046414,7.109e-05,0.0,0 STARLINK-3848,1 52362U 22045AH  24130.82704398  .00007109  00000-0  46414-3 0  9991,2 52362  53.2164 311.7611 0001204  86.2455 273.8675 15.08852676114943,6917.842,95.437,540.54,538.874,0.0
52362.0,STARLINK-3848,PAYLOAD,2024-05-10 11:44:48,15.08846896,0.0001287,53.2155,308.7894,80.596,279.5177,0.00030064,4.501e-05,0.0,0 STARLINK-3848,1 52362U 22045AH  24131.48944497  .00004501  00000-0  30064-3 0  9997,2 52362  53.2155 308.7894 0001287  80.5960 279.5177 15.08846896115040,6917.859,95.437,540.615,538.834,0.0
52362.0,STARLINK-3848,PAYLOAD,2024-05-10 18:06:20,15.0885173,0.0001119,53.217,307.5989,93.1245,266.9875,0.00034806,5.258e-05,0.0,0 STARLINK-3848,1 52362U 22045AH  24131.75440403  .00005258  00000-0  34806-3 0  9993,2 52362  53.2170 307.5989 0001119  93.1245 266.9875 15.08851730115081,6917.845,95.437,540.484,538.935,0.0
52362.0,STARLINK-3848,PAYLOAD,2024-05-11 21:07:50,15.08882665,0.0001444,53.2171,302.5452,99.902,260.2135,-0.00043426,-7.201e-05,0.0,0 STARLINK-3848,1 52362U 22045AH  24132.88044315 -.00007201  00000-0 -43426-3 0  9990,2 52362  53.2171 302.5452 0001444  99.9020 260.2135 15.08882665115254,6917.75,95.435,540.614,538.616,0.0
52362.0,STARLINK-3848,PAYLOAD,2024-05-12 11:26:25,15.0867087,0.0002067,53.2188,299.8676,82.346,277.7766,-0.0044649,-0.0007033,0.0,0 STARLINK-3848,1 52362U 22045AH  24133.47668786 -.00070330  00000-0 -44649-2 0  9990,2 52362  53.2188 299.8676 0002067  82.3460 277.7766 15.08670870115340,6918.397,95.448,541.692,538.832,0.0
52362.0,STARLINK-3848,PAYLOAD,2024-05-12 14:37:13,15.08640683,0.0001181,53.2198,299.272,98.943,261.1696,-0.0040824,-0.00064327,0.0,0 STARLINK-3848,1 52362U 22045AH  24133.60918874 -.00064327  00000-0 -40824-2 0  9991,2 52362  53.2198 299.2720 0001181  98.9430 261.1696 15.08640683115361,6918.49,95.45,541.172,539.538,0.0
52362.0,STARLINK-3848,PAYLOAD,2024-05-12 17:48:02,15.08580037,0.0001293,53.2182,298.6772,66.3941,293.7186,-0.0044208,-0.00069471,0.0,0 STARLINK-3848,1 52362U 22045AH  24133.74169904 -.00069471  00000-0 -44208-2 0  9993,2 52362  53.2182 298.6772 0001293  66.3941 293.7186 15.08580037115387,6918.675,95.454,541.435,539.646,0.0
52362.0,STARLINK-3848,PAYLOAD,2024-05-13 17:38:51,15.08864381,2.91e-05,53.2179,294.2176,72.036,288.0664,0.001302,0.00020508,0.0,0 STARLINK-3848,1 52362U 22045AH  24134.73531390  .00020508  00000-0  13020-2 0  9999,2 52362  53.2179 294.2176 0000291  72.0360 288.0664 15.08864381115531,6917.806,95.436,539.872,539.47,0.0
52362.0,STARLINK-3848,PAYLOAD,2024-05-14 11:08:02,15.08942429,0.0002091,53.2172,290.9482,109.1575,250.9643,0.0017667,0.00028021,0.0,0 STARLINK-3848,1 52362U 22045AH  24135.46391289  .00028021  00000-0  17667-2 0  9990,2 52362  53.2172 290.9482 0002091 109.1575 250.9643 15.08942429115644,6917.567,95.431,540.879,537.986,0.0
52362.0,STARLINK-3848,PAYLOAD,2024-05-14 17:29:32,15.08980611,9.88e-05,53.2174,289.7586,108.9168,251.1931,0.0028643,0.0004577,0.0,0 STARLINK-3848,1 52362U 22045AH  24135.72884912  .00045770  00000-0  28643-2 0  9995,2 52362  53.2174 289.7586 0000988 108.9168 251.1931 15.08980611115687,6917.451,95.429,539.999,538.632,0.0
52362.0,STARLINK-3848,PAYLOAD,2024-05-15 03:01:48,15.08997445,0.0001943,53.2165,287.9732,280.4946,79.5827,0.004034,0.00064783,0.0,0 STARLINK-3848,1 52362U 22045AH  24136.12625344  .00064783  00000-0  40340-2 0  9995,2 52362  53.2165 287.9732 0001943 280.4946  79.5827 15.08997445115748,6917.399,95.428,540.608,537.92,0.0
52362.0,STARLINK-3848,PAYLOAD,2024-05-15 14:09:30,15.08897072,0.0001095,53.2146,285.8911,77.4726,282.6389,0.0010324,0.00016206,0.0,0 STARLINK-3848,1 52362U 22045AH  24136.58993207  .00016206  00000-0  10324-2 0  9997,2 52362  53.2146 285.8911 0001095  77.4726 282.6389 15.08897072115814,6917.706,95.434,540.328,538.813,0.0
52362.0,STARLINK-3848,PAYLOAD,2024-05-15 20:31:02,15.08904316,0.0001306,53.2165,284.7027,75.5308,284.5829,0.0028392,0.00045268,0.0,0 STARLINK-3848,1 52362U 22045AH  24136.85488646  .00045268  00000-0  28392-2 0  9997,2 52362  53.2165 284.7027 0001306  75.5308 284.5829 15.08904316115855,6917.684,95.433,540.452,538.645,0.0
52362.0,STARLINK-3848,PAYLOAD,2024-05-16 09:14:07,15.08873815,0.0002021,53.2154,282.3235,107.3298,252.7915,0.0013519,0.00021313,0.0,0 STARLINK-3848,1 52362U 22045AH  24137.38480593  .00021313  00000-0  13519-2 0  9999,2 52362  53.2154 282.3235 0002021 107.3298 252.7915 15.08873815115936,6917.777,95.435,541.04,538.244,0.0
52362.0,STARLINK-3848,PAYLOAD,2024-05-16 18:46:25,15.08888627,0.0001003,53.2159,280.5382,114.9176,245.192,0.0031964,0.00051019,0.0,0 STARLINK-3848,1 52362U 22045AH  24137.78224061  .00051019  00000-0  31964-2 0  9999,2 52362  53.2159 280.5382 0001003 114.9176 245.1920 15.08888627115997,6917.732,95.434,540.291,538.903,0.0
52362.0,STARLINK-3848,PAYLOAD,2024-05-17 02:43:22,15.0882891,0.0002969,53.216,279.0499,84.6592,275.4739,0.0011516,0.00018082,0.0,0 STARLINK-3848,1 52362U 22045AH  24138.11345456  .00018082  00000-0  11516-2 0  9993,2 52362  53.2160 279.0499 0002969  84.6592 275.4739 15.08828910116048,6917.914,95.438,541.833,537.725,0.0
52362.0,STARLINK-3848,PAYLOAD,2024-05-17 15:26:28,15.08830894,0.0003378,53.2131,276.6745,78.0189,282.1182,0.0010298,0.00016136,0.0,0 STARLINK-3848,1 52362U 22045AH  24138.64338281  .00016136  00000-0  10298-2 0  9993,2 52362  53.2131 276.6745 0003378  78.0189 282.1182 15.08830894116127,6917.908,95.438,542.11,537.436,0.0
52362.0,STARLINK-3848,PAYLOAD,2024-05-17 18:37:14,15.08819259,0.0002015,53.2141,276.0794,76.3761,283.7456,0.0012251,0.00019252,0.0,0 STARLINK-3848,1 52362U 22045AH  24138.77586506  .00019252  00000-0  12251-2 0  9995,2 52362  53.2141 276.0794 0002015  76.3761 283.7456 15.08819259116145,6917.944,95.439,541.203,538.415,0.0
52362.0,STARLINK-3848,PAYLOAD,2024-05-18 02:34:10,15.08843822,0.0001969,53.2156,274.5937,73.95,286.1709,0.0016352,0.00025835,0.0,0 STARLINK-3848,1 52362U 22045AH  24139.10706498  .00025835  00000-0  16352-2 0  9997,2 52362  53.2156 274.5937 0001969  73.9500 286.1709 15.08843822116190,6917.869,95.437,541.096,538.372,0.0
52362.0,STARLINK-3848,PAYLOAD,2024-05-18 15:17:14,15.08896776,0.0001953,53.2126,272.2112,87.5631,272.5585,0.002494,0.0003969,0.0,0 STARLINK-3848,1 52362U 22045AH  24139.63697108  .00039690  00000-0  24940-2 0  9998,2 52362  53.2126 272.2112 0001953  87.5631 272.5585 15.08896776116272,6917.707,95.434,540.923,538.221,0.0
52362.0,STARLINK-3848,PAYLOAD,2024-05-19 02:24:55,15.08881139,0.0001981,53.2164,270.1301,86.3689,273.753,0.0011523,0.00018119,0.0,0 STARLINK-3848,1 52362U 22045AH  24140.10064427  .00018119  00000-0  11523-2 0  9990,2 52362  53.2164 270.1301 0001981  86.3689 273.7530 15.08881139116340,6917.755,95.435,540.99,538.249,0.0
52362.0,STARLINK-3848,PAYLOAD,2024-05-19 13:32:38,15.08820271,0.0001455,53.2161,268.0511,97.6428,262.473,0.0006298,9.744e-05,0.0,0 STARLINK-3848,1 52362U 22045AH  24140.56433166  .00009744  00000-0  62980-3 0  9998,2 52362  53.2161 268.0511 0001455  97.6428 262.4730 15.08820271116413,6917.941,95.439,540.812,538.799,0.0
